CCSDS_OMM_VERS = 2.0
CREATION_DATE  = 
ORIGINATOR     = 

OBJECT_NAME    = COSMOS 2242
OBJECT_ID      = 1993-024A
CENTER_NAME    = EARTH
REF_FRAME      = TEME
TIME_SYSTEM    = UTC
MEAN_ELEMENT_THEORY = SGP/SGP4

EPOCH          = 2026-04-03T18:36:17.502048
MEAN_MOTION    = 14.96669797
ECCENTRICITY   = .0015496
INCLINATION    = 82.5174
RA_OF_ASC_NODE = 242.7152
ARG_OF_PERICENTER = 217.1470
MEAN_ANOMALY   = 142.8681

EPHEMERIS_TYPE = 0
CLASSIFICATION_TYPE = U
NORAD_CAT_ID   = 22626
ELEMENT_SET_NO = 999
REV_AT_EPOCH   = 78414
BSTAR          = .34637E-3
MEAN_MOTION_DOT = .3985E-4
MEAN_MOTION_DDOT = 0

CCSDS_OMM_VERS = 2.0
CREATION_DATE  = 
ORIGINATOR     = 

OBJECT_NAME    = SL-16 R/B
OBJECT_ID      = 1993-059B
CENTER_NAME    = EARTH
REF_FRAME      = TEME
TIME_SYSTEM    = UTC
MEAN_ELEMENT_THEORY = SGP/SGP4

EPOCH          = 2026-04-03T19:34:22.338048
MEAN_MOTION    = 14.17234811
ECCENTRICITY   = .0017096
INCLINATION    = 70.9906
RA_OF_ASC_NODE = 318.1439
ARG_OF_PERICENTER = 179.3794
MEAN_ANOMALY   = 180.7354

EPHEMERIS_TYPE = 0
CLASSIFICATION_TYPE = U
NORAD_CAT_ID   = 22803
ELEMENT_SET_NO = 999
REV_AT_EPOCH   = 68309
BSTAR          = .58483E-4
MEAN_MOTION_DOT = .7E-6
MEAN_MOTION_DDOT = 0

CCSDS_OMM_VERS = 2.0
CREATION_DATE  = 
ORIGINATOR     = 

OBJECT_NAME    = ARIANE 40 R/B
OBJECT_ID      = 1993-061H
CENTER_NAME    = EARTH
REF_FRAME      = TEME
TIME_SYSTEM    = UTC
MEAN_ELEMENT_THEORY = SGP/SGP4

EPOCH          = 2026-04-03T18:25:22.831968
MEAN_MOTION    = 14.32875370
ECCENTRICITY   = .0010326
INCLINATION    = 98.4871
RA_OF_ASC_NODE = 162.1547
ARG_OF_PERICENTER = 203.9260
MEAN_ANOMALY   = 156.1446

EPHEMERIS_TYPE = 0
CLASSIFICATION_TYPE = U
NORAD_CAT_ID   = 22830
ELEMENT_SET_NO = 999
REV_AT_EPOCH   = 69769
BSTAR          = .14629E-3
MEAN_MOTION_DOT = .356E-5
MEAN_MOTION_DDOT = 0

CCSDS_OMM_VERS = 2.0
CREATION_DATE  = 
ORIGINATOR     = 

OBJECT_NAME    = COSMOS 2278
OBJECT_ID      = 1994-023A
CENTER_NAME    = EARTH
REF_FRAME      = TEME
TIME_SYSTEM    = UTC
MEAN_ELEMENT_THEORY = SGP/SGP4

EPOCH          = 2026-04-03T11:49:06.828096
MEAN_MOTION    = 14.14374884
ECCENTRICITY   = .00093198
INCLINATION    = 71.0506
RA_OF_ASC_NODE = 123.2078
ARG_OF_PERICENTER = 336.5265
MEAN_ANOMALY   = 23.5431

EPHEMERIS_TYPE = 0
CLASSIFICATION_TYPE = U
NORAD_CAT_ID   = 23087
ELEMENT_SET_NO = 999
REV_AT_EPOCH   = 64831
BSTAR          = .24197813E-4
MEAN_MOTION_DOT = -.1E-7
MEAN_MOTION_DDOT = 0

CCSDS_OMM_VERS = 2.0
CREATION_DATE  = 
ORIGINATOR     = 

OBJECT_NAME    = SL-16 R/B
OBJECT_ID      = 1994-023B
CENTER_NAME    = EARTH
REF_FRAME      = TEME
TIME_SYSTEM    = UTC
MEAN_ELEMENT_THEORY = SGP/SGP4

EPOCH          = 2026-04-03T21:08:55.604832
MEAN_MOTION    = 14.15019482
ECCENTRICITY   = .0005577
INCLINATION    = 71.0031
RA_OF_ASC_NODE = 17.9816
ARG_OF_PERICENTER = 263.6690
MEAN_ANOMALY   = 96.3797

EPHEMERIS_TYPE = 0
CLASSIFICATION_TYPE = U
NORAD_CAT_ID   = 23088
ELEMENT_SET_NO = 999
REV_AT_EPOCH   = 64965
BSTAR          = .12768E-3
MEAN_MOTION_DOT = .2E-5
MEAN_MOTION_DDOT = 0

CCSDS_OMM_VERS = 2.0
CREATION_DATE  = 
ORIGINATOR     = 

OBJECT_NAME    = SL-16 R/B
OBJECT_ID      = 1994-074B
CENTER_NAME    = EARTH
REF_FRAME      = TEME
TIME_SYSTEM    = UTC
MEAN_ELEMENT_THEORY = SGP/SGP4

EPOCH          = 2026-04-03T15:00:46.889280
MEAN_MOTION    = 14.79438623
ECCENTRICITY   = .000766
INCLINATION    = 97.7071
RA_OF_ASC_NODE = 123.4294
ARG_OF_PERICENTER = 131.8871
MEAN_ANOMALY   = 342.3107

EPHEMERIS_TYPE = 0
CLASSIFICATION_TYPE = U
NORAD_CAT_ID   = 23343
ELEMENT_SET_NO = 999
REV_AT_EPOCH   = 69093
BSTAR          = .11806E-3
MEAN_MOTION_DOT = .832E-5
MEAN_MOTION_DDOT = 0

CCSDS_OMM_VERS = 2.0
CREATION_DATE  = 
ORIGINATOR     = 

OBJECT_NAME    = SL-16 R/B
OBJECT_ID      = 1994-077B
CENTER_NAME    = EARTH
REF_FRAME      = TEME
TIME_SYSTEM    = UTC
MEAN_ELEMENT_THEORY = SGP/SGP4

EPOCH          = 2026-04-03T20:28:16.610592
MEAN_MOTION    = 14.15568226
ECCENTRICITY   = .0001614
INCLINATION    = 70.9821
RA_OF_ASC_NODE = 299.5516
ARG_OF_PERICENTER = 190.4138
MEAN_ANOMALY   = 169.6951

EPHEMERIS_TYPE = 0
CLASSIFICATION_TYPE = U
NORAD_CAT_ID   = 23405
ELEMENT_SET_NO = 999
REV_AT_EPOCH   = 61979
BSTAR          = -.72619E-4
MEAN_MOTION_DOT = -.19E-5
MEAN_MOTION_DDOT = 0

CCSDS_OMM_VERS = 2.0
CREATION_DATE  = 
ORIGINATOR     = 

OBJECT_NAME    = ARIANE 40+ R/B
OBJECT_ID      = 1995-021B
CENTER_NAME    = EARTH
REF_FRAME      = TEME
TIME_SYSTEM    = UTC
MEAN_ELEMENT_THEORY = SGP/SGP4

EPOCH          = 2026-04-03T16:57:05.767200
MEAN_MOTION    = 14.39791754
ECCENTRICITY   = .0007854
INCLINATION    = 98.4454
RA_OF_ASC_NODE = 164.8446
ARG_OF_PERICENTER = 72.1356
MEAN_ANOMALY   = 41.9891

EPHEMERIS_TYPE = 0
CLASSIFICATION_TYPE = U
NORAD_CAT_ID   = 23561
ELEMENT_SET_NO = 999
REV_AT_EPOCH   = 62284
BSTAR          = .17288E-3
MEAN_MOTION_DOT = .499E-5
MEAN_MOTION_DDOT = 0

CCSDS_OMM_VERS = 2.0
CREATION_DATE  = 
ORIGINATOR     = 

OBJECT_NAME    = SL-16 R/B
OBJECT_ID      = 1995-058B
CENTER_NAME    = EARTH
REF_FRAME      = TEME
TIME_SYSTEM    = UTC
MEAN_ELEMENT_THEORY = SGP/SGP4

EPOCH          = 2026-04-03T12:11:18.659904
MEAN_MOTION    = 14.15497860
ECCENTRICITY   = .00102697
INCLINATION    = 71.0192
RA_OF_ASC_NODE = 128.1524
ARG_OF_PERICENTER = 80.2061
MEAN_ANOMALY   = 280.0221

EPHEMERIS_TYPE = 0
CLASSIFICATION_TYPE = U
NORAD_CAT_ID   = 23705
ELEMENT_SET_NO = 999
REV_AT_EPOCH   = 57136
BSTAR          = -.10657853E-4
MEAN_MOTION_DOT = -.68E-6
MEAN_MOTION_DDOT = 0

CCSDS_OMM_VERS = 2.0
CREATION_DATE  = 
ORIGINATOR     = 

OBJECT_NAME    = SL-16 R/B
OBJECT_ID      = 1996-051B
CENTER_NAME    = EARTH
REF_FRAME      = TEME
TIME_SYSTEM    = UTC
MEAN_ELEMENT_THEORY = SGP/SGP4

EPOCH          = 2026-04-03T12:40:57.041472
MEAN_MOTION    = 14.12423229
ECCENTRICITY   = .00131365
INCLINATION    = 70.7581
RA_OF_ASC_NODE = 122.6662
ARG_OF_PERICENTER = 107.2994
MEAN_ANOMALY   = 252.9564

EPHEMERIS_TYPE = 0
CLASSIFICATION_TYPE = U
NORAD_CAT_ID   = 24298
ELEMENT_SET_NO = 999
REV_AT_EPOCH   = 52515
BSTAR          = .10535924E-3
MEAN_MOTION_DOT = .145E-5
MEAN_MOTION_DDOT = 0

CCSDS_OMM_VERS = 2.0
CREATION_DATE  = 
ORIGINATOR     = 

OBJECT_NAME    = ORBVIEW 2 (SEASTAR)
OBJECT_ID      = 1997-037A
CENTER_NAME    = EARTH
REF_FRAME      = TEME
TIME_SYSTEM    = UTC
MEAN_ELEMENT_THEORY = SGP/SGP4

EPOCH          = 2026-04-03T17:16:11.523648
MEAN_MOTION    = 14.35513875
ECCENTRICITY   = .0002104
INCLINATION    = 98.8610
RA_OF_ASC_NODE = 258.7003
ARG_OF_PERICENTER = 15.5240
MEAN_ANOMALY   = 344.6009

EPHEMERIS_TYPE = 0
CLASSIFICATION_TYPE = U
NORAD_CAT_ID   = 24883
ELEMENT_SET_NO = 999
REV_AT_EPOCH   = 51206
BSTAR          = .18147E-3
MEAN_MOTION_DOT = .475E-5
MEAN_MOTION_DDOT = 0

CCSDS_OMM_VERS = 2.0
CREATION_DATE  = 
ORIGINATOR     = 

OBJECT_NAME    = SL-16 R/B
OBJECT_ID      = 1998-043G
CENTER_NAME    = EARTH
REF_FRAME      = TEME
TIME_SYSTEM    = UTC
MEAN_ELEMENT_THEORY = SGP/SGP4

EPOCH          = 2026-04-03T20:24:01.751328
MEAN_MOTION    = 14.26056012
ECCENTRICITY   = .0008971
INCLINATION    = 98.8297
RA_OF_ASC_NODE = 47.3985
ARG_OF_PERICENTER = 305.6096
MEAN_ANOMALY   = 54.4247

EPHEMERIS_TYPE = 0
CLASSIFICATION_TYPE = U
NORAD_CAT_ID   = 25400
ELEMENT_SET_NO = 999
REV_AT_EPOCH   = 44257
BSTAR          = .68031E-4
MEAN_MOTION_DOT = .117E-5
MEAN_MOTION_DDOT = 0

